OBJECT_NAME,OBJECT_ID,EPOCH,MEAN_MOTION,ECCENTRICITY,INCLINATION,RA_OF_ASC_NODE,ARG_OF_PERICENTER,MEAN_ANOMALY,EPHEMERIS_TYPE,CLASSIFICATION_TYPE,NORAD_CAT_ID,ELEMENT_SET_NO,REV_AT_EPOCH,BSTAR,MEAN_MOTION_DOT,MEAN_MOTION_DDOT
ANGOSAT 2,2022-131A,2026-07-04T00:18:32.744736,1.00270882,.0000072,0.0151,108.4254,341.7138,219.5207,0,U,54033,999,1364,0,.147E-5,0
EUTELSAT HOTBIRD 13F,2022-134A,2026-07-02T20:13:42.003264,1.00269777,.00019607,0.0550,289.6348,75.4106,232.2727,0,U,54048,999,1353,0,.98E-6,0
LDPE-2,2022-144A,2026-07-02T16:43:33.582144,1.00540066,.00022926,5.6481,63.5240,97.8471,227.5401,0,U,54219,999,1199,0,.98E-6,0
EUTELSAT HOTBIRD 13G,2022-146A,2026-07-02T20:13:41.935008,1.00269753,.0002133,0.0205,247.7452,288.6594,60.9034,0,U,54225,999,762,0,0,0
ZHONGXING-19,2022-148A,2026-07-03T14:05:38.664384,1.00271218,.00030806,0.0469,255.8708,231.9897,168.3701,0,U,54230,999,1354,0,-.7E-6,0
GALAXY 31 (G-31),2022-153A,2026-07-02T16:49:40.496160,1.00272151,.00015575,0.0144,81.6881,17.8273,312.6321,0,U,54243,999,728,0,.24E-6,0
GALAXY 32 (G-32),2022-153B,2026-07-02T13:32:58.530048,1.00272409,.0001988,0.0105,15.3279,35.2758,342.2488,0,U,54244,999,1329,0,-.164E-5,0
EUTELSAT 10B,2022-157A,2026-07-02T19:09:44.728704,1.00270773,.00024068,0.0608,95.8776,15.5205,106.8659,0,U,54259,999,1318,0,.79E-6,0
GALAXY 35 (G-35),2022-170A,2026-07-02T13:32:21.090336,1.00272915,.0002307,0.0164,55.7529,46.1625,288.6647,0,U,54741,999,1304,0,-.152E-5,0
GALAXY 36 (G-36),2022-170B,2026-07-02T15:16:13.435968,1.00272523,.00029227,0.0039,81.1750,11.7961,327.7578,0,U,54742,999,1292,0,-.175E-5,0
METEOSAT-12 (MTG-I1),2022-170C,2026-07-02T17:24:08.004096,1.00276285,.00036023,0.7551,25.3200,74.6137,81.6181,0,U,54743,999,1313,0,.4E-7,0
SHIJIAN-23 (SJ-23),2023-002A,2026-07-02T18:38:54.470976,1.00083356,.0003517,3.7551,78.1245,278.1911,341.9054,0,U,55131,999,1266,0,-.31E-5,0
APSTAR-6E,2023-005A,2026-07-03T04:18:13.795776,1.00268573,.00013134,0.0499,220.6137,324.4150,294.7079,0,U,55239,999,1885,0,-.307E-5,0
USA 342,2023-008A,2026-07-01T03:52:39.557280,1.00270158,.0000567,0.0057,55.5286,166.1191,139.6640,0,U,55263,999,1265,0,0,0
LDPE-3A,2023-008B,2026-07-02T18:17:52.736352,0.99150959,.00015733,2.3860,81.4831,59.3089,242.4137,0,U,55264,999,1196,0,-.83E-6,0
ELEKTRO-L 4,2023-016A,2026-07-02T18:13:43.576896,1.00271708,.00010929,0.0930,140.0599,41.1412,178.7943,0,U,55506,999,1249,0,-.48E-6,0
AMAZONAS NEXUS,2023-017A,2026-07-02T18:49:19.161984,1.00270495,.00049662,0.0334,36.5337,42.6634,62.9598,0,U,55508,999,720,0,-.272E-5,0
ZHONGXING-26,2023-023A,2026-07-02T21:29:41.627616,1.00269722,.00032929,0.0647,70.3129,27.3144,270.8607,0,U,55686,999,1238,0,-.343E-5,0
LUCH-5X (OLYMP-K 2),2023-031A,2026-07-02T18:37:40.484064,1.00269692,.0001113,0.0299,86.0246,152.0734,24.0844,0,U,55841,999,1209,0,.44E-6,0
GAOFEN-13 02,2023-036A,2026-07-03T14:21:38.781792,1.00267481,.00034955,1.0233,3.0966,335.3949,306.6986,0,U,55912,999,1225,0,-.209E-5,0
SES-18,2023-038A,2026-07-02T15:12:13.817664,1.00272570,.00001502,0.0395,271.1817,204.2304,290.2116,0,U,55970,999,1225,0,-.91E-6,0
SES-19,2023-038B,2026-07-02T20:22:05.717856,1.00270815,.00018235,0.0087,29.7739,69.9213,351.8179,0,U,55971,999,1225,0,.98E-6,0
INTELSAT 40E (IS-40E),2023-052A,2026-07-02T15:15:35.995392,1.00272139,.00024464,0.0178,62.3025,68.3711,287.9007,0,U,56174,999,1197,0,-.164E-5,0
VIASAT-3 F1,2023-060A,2026-07-02T15:16:13.435968,1.00272672,.00007614,0.0198,6.0968,100.5919,314.0664,0,U,56370,999,1158,0,0,0
ARCTURUS,2023-060B,2026-07-02T20:57:23.832000,1.00598583,.00004858,2.8142,79.7440,159.0610,81.0364,0,U,56371,999,1161,0,-.236E-5,0
GS-1,2023-060C,2026-07-02T19:12:48.405600,1.00270238,.00036075,2.7650,79.6487,280.2422,298.5838,0,U,56372,999,769,0,-.214E-5,0
BEIDOU-3 G4,2023-066A,2026-07-03T16:37:19.904736,1.00268300,.00050438,0.4702,335.5729,177.2682,158.2128,0,U,56564,999,1155,0,-.27E-5,0
ARABSAT-7B (BADR-8),2023-075A,2026-07-02T07:15:37.067040,1.00271160,.0004084,0.0729,28.1371,3.9949,23.1140,0,U,56757,999,1126,0,.155E-5,0
NVS-01 (IRNSS-1J),2023-076A,2026-07-02T19:58:52.925664,1.00271773,.00029356,2.1313,243.6477,8.5955,97.9202,0,U,56759,999,1127,0,-.324E-5,0
NUSANTARA TIGA (SATRIA),2023-086A,2026-07-02T20:37:29.675136,1.00269466,.0002507,0.0365,3.4425,339.4312,33.3935,0,U,57045,999,991,0,-.224E-5,0
H2SAT (HEINRICH HERTZ),2023-093A,2026-07-02T08:51:08.078400,1.00270532,.0001078,0.0305,96.5420,16.6933,300.6646,0,U,57213,999,1106,0,.12E-6,0
