ANGOSAT 2               
1 54033U 22131A   26185.01287899  .00000147  00000+0  00000+0 0  9990
2 54033   0.0151 108.4254 0000072 341.7138 219.5207  1.00270882 13642
EUTELSAT HOTBIRD 13F    
1 54048U 22134A   26183.84284726  .00000098  00000+0  00000+0 0  9999
2 54048   0.0550 289.6348 0001960  75.4106 232.2727  1.00269777 13538
LDPE-2                  
1 54219U 22144A   26183.69691646  .00000098  00000+0  00000+0 0  9996
2 54219   5.6481  63.5240 0002292  97.8471 227.5401  1.00540066 11991
EUTELSAT HOTBIRD 13G    
1 54225U 22146A   26183.84284647  .00000000  00000+0  00000+0 0  9994
2 54225   0.0205 247.7452 0002133 288.6594  60.9034  1.00269753  7629
ZHONGXING-19            
1 54230U 22148A   26184.58725306 -.00000070  00000+0  00000+0 0  9994
2 54230   0.0469 255.8708 0003080 231.9897 168.3701  1.00271218 13541
GALAXY 31 (G-31)        
1 54243U 22153A   26183.70116315  .00000024  00000+0  00000+0 0  9999
2 54243   0.0144  81.6881 0001557  17.8273 312.6321  1.00272151  7281
GALAXY 32 (G-32)        
1 54244U 22153B   26183.56456632 -.00000164  00000+0  00000+0 0  9999
2 54244   0.0105  15.3279 0001988  35.2758 342.2488  1.00272409 13291
EUTELSAT 10B            
1 54259U 22157A   26183.79843436  .00000079  00000+0  00000+0 0  9990
2 54259   0.0608  95.8776 0002406  15.5205 106.8659  1.00270773 13188
GALAXY 35 (G-35)        
1 54741U 22170A   26183.56413299 -.00000152  00000+0  00000+0 0  9999
2 54741   0.0164  55.7529 0002307  46.1625 288.6647  1.00272915 13049
GALAXY 36 (G-36)        
1 54742U 22170B   26183.63626662 -.00000175  00000+0  00000+0 0  9993
2 54742   0.0039  81.1750 0002922  11.7961 327.7578  1.00272523 12923
METEOSAT-12 (MTG-I1)    
1 54743U 22170C   26183.72509264  .00000004  00000+0  00000+0 0  9992
2 54743   0.7551  25.3200 0003602  74.6137  81.6181  1.00276285 13138
SHIJIAN-23 (SJ-23)      
1 55131U 23002A   26183.77701934 -.00000310  00000+0  00000+0 0  9993
2 55131   3.7551  78.1245 0003517 278.1911 341.9054  1.00083356 12667
APSTAR-6E               
1 55239U 23005A   26184.17932634 -.00000307  00000+0  00000+0 0  9999
2 55239   0.0499 220.6137 0001313 324.4150 294.7079  1.00268573 18858
USA 342                 
1 55263U 23008A   26182.16156895  .00000000  00000+0  00000+0 0  9992
2 55263   0.0057  55.5286 0000567 166.1191 139.6640  1.00270158 12656
LDPE-3A                 
1 55264U 23008B   26183.76241593 -.00000083  00000+0  00000+0 0  9992
2 55264   2.3860  81.4831 0001573  59.3089 242.4137  0.99150959 11965
ELEKTRO-L 4             
1 55506U 23016A   26183.75953214 -.00000048  00000+0  00000+0 0  9990
2 55506   0.0930 140.0599 0001092  41.1412 178.7943  1.00271708 12499
AMAZONAS NEXUS          
1 55508U 23017A   26183.78424956 -.00000272  00000+0  00000+0 0  9991
2 55508   0.0334  36.5337 0004966  42.6634  62.9598  1.00270495  7208
ZHONGXING-26            
1 55686U 23023A   26183.89562069 -.00000343  00000+0  00000+0 0  9994
2 55686   0.0647  70.3129 0003292  27.3144 270.8607  1.00269722 12381
LUCH-5X (OLYMP-K 2)     
1 55841U 23031A   26183.77616301  .00000044  00000+0  00000+0 0  9999
2 55841   0.0299  86.0246 0001113 152.0734  24.0844  1.00269692 12098
GAOFEN-13 02            
1 55912U 23036A   26184.59836553 -.00000209  00000+0  00000+0 0  9991
2 55912   1.0233   3.0966 0003495 335.3949 306.6986  1.00267481 12251
SES-18                  
1 55970U 23038A   26183.63349326 -.00000091  00000+0  00000+0 0  9997
2 55970   0.0395 271.1817 0000150 204.2304 290.2116  1.00272570 12258
SES-19                  
1 55971U 23038B   26183.84867729  .00000098  00000+0  00000+0 0  9999
2 55971   0.0087  29.7739 0001823  69.9213 351.8179  1.00270815 12253
INTELSAT 40E (IS-40E)   
1 56174U 23052A   26183.63583328 -.00000164  00000+0  00000+0 0  9993
2 56174   0.0178  62.3025 0002446  68.3711 287.9007  1.00272139 11977
VIASAT-3 F1             
1 56370U 23060A   26183.63626662  .00000000  00000+0  00000+0 0  9997
2 56370   0.0198   6.0968 0000761 100.5919 314.0664  1.00272672 11585
ARCTURUS                
1 56371U 23060B   26183.87319250 -.00000236  00000+0  00000+0 0  9998
2 56371   2.8142  79.7440 0000485 159.0610  81.0364  1.00598583 11611
GS-1                    
1 56372U 23060C   26183.80056025 -.00000214  00000+0  00000+0 0  9996
2 56372   2.7650  79.6487 0003607 280.2422 298.5838  1.00270238  7690
BEIDOU-3 G4             
1 56564U 23066A   26184.69259149 -.00000270  00000+0  00000+0 0  9997
2 56564   0.4702 335.5729 0005043 177.2682 158.2128  1.00268300 11559
ARABSAT-7B (BADR-8)     
1 56757U 23075A   26183.30251235  .00000155  00000+0  00000+0 0  9997
2 56757   0.0729  28.1371 0004084   3.9949  23.1140  1.00271160 11261
NVS-01 (IRNSS-1J)       
1 56759U 23076A   26183.83255701 -.00000324  00000+0  00000+0 0  9999
2 56759   2.1313 243.6477 0002935   8.5955  97.9202  1.00271773 11276
NUSANTARA TIGA (SATRIA) 
1 57045U 23086A   26183.85937124 -.00000224  00000+0  00000+0 0  9996
2 57045   0.0365   3.4425 0002507 339.4312  33.3935  1.00269466  9913
H2SAT (HEINRICH HERTZ)  
1 57213U 23093A   26183.36884350  .00000012  00000+0  00000+0 0  9993
2 57213   0.0305  96.5420 0001078  16.6933 300.6646  1.00270532 11061
